NORAD_CAT_ID,OBJECT_NAME,OBJECT_TYPE,EPOCH,MEAN_MOTION,ECCENTRICITY,INCLINATION,RA_OF_ASC_NODE,ARG_OF_PERICENTER,MEAN_ANOMALY,BSTAR,MEAN_MOTION_DOT,MEAN_MOTION_DDOT,TLE_LINE0,TLE_LINE1,TLE_LINE2,SEMIMAJOR_AXIS,PERIOD,APOGEE,PERIGEE,DECAYED
52872.0,STARLINK-4213,PAYLOAD,2022-09-17 22:00:00,15.290656,0.0001665999999999,53.2175,310.5706,42.5163,217.6646,-0.040623,-0.01065315,0.0,0 STARLINK-4213,1 52872U 22062AU  22260.91667824 -.01065315  00000-0 -40623-1 0  9990,2 52872  53.2175 310.5706 0001666  42.5163 217.6646 15.29065600 15003,6856.741,94.175,479.749,477.464,0.0
52872.0,STARLINK-4213,PAYLOAD,2022-09-18 14:00:01,15.27545206,0.00016,53.2174,307.482,40.2026,290.0015,-0.042445,-0.01062421,0.0,0 STARLINK-4213,1 52872U 22062AU  22261.58335648 -.01062421  00000-0 -42445-1 0  9999,2 52872  53.2174 307.4820 0001600  40.2026 290.0015 15.27545206  1301,6861.29,94.269,484.253,482.057,0.0
52872.0,STARLINK-4213,PAYLOAD,2022-09-18 22:00:00,15.26786559,0.0001710999999999,53.2174,305.9376,33.4895,330.2633,-0.043545,-0.01064772,0.0,0 STARLINK-4213,1 52872U 22062AU  22261.91667824 -.01064772  00000-0 -43545-1 0  9993,2 52872  53.2174 305.9376 0001711  33.4895 330.2633 15.26786559 15159,6863.563,94.316,486.602,484.254,0.0
52872.0,STARLINK-4213,PAYLOAD,2022-09-19 14:00:01,15.25265791,0.0001695,53.2173,302.8596,37.1463,31.0902,-0.045429,-0.01061026,0.0,0 STARLINK-4213,1 52872U 22062AU  22262.58334491 -.01061026  00000-0 -45429-1 0  9990,2 52872  53.2173 302.8596 0001695  37.1463  31.0902 15.25265791  1307,6868.124,94.41,491.154,488.825,0.0
52872.0,STARLINK-4213,PAYLOAD,2022-09-19 22:00:00,15.24507019,0.0001652,53.2175,301.3206,41.713,57.3977,-0.046564,-0.0106276,0.0,0 STARLINK-4213,1 52872U 22062AU  22262.91667824 -.01062760  00000-0 -46564-1 0  9993,2 52872  53.2175 301.3206 0001652  41.7130  57.3977 15.24507019 15305,6870.403,94.457,493.403,491.133,0.0
52872.0,STARLINK-4213,PAYLOAD,2022-09-20 14:00:01,15.22986348,0.000165,53.2173,298.2533,49.2118,108.9066,-0.048555,-0.01059162,0.0,0 STARLINK-4213,1 52872U 22062AU  22263.58334491 -.01059162  00000-0 -48555-1 0  9992,2 52872  53.2173 298.2533 0001650  49.2118 108.9066 15.22986348  1308,6874.976,94.551,497.975,495.706,0.0
52872.0,STARLINK-4213,PAYLOAD,2022-09-20 22:00:01,15.22227886,0.0001714,53.2174,296.7196,45.5471,140.7708,-0.0497639999999999,-0.01061141,0.0,0 STARLINK-4213,1 52872U 22062AU  22263.91668981 -.01061141  00000-0 -49764-1 0  9996,2 52872  53.2174 296.7196 0001714  45.5471 140.7708 15.22227886  1301,6877.259,94.598,500.30300000000005,497.945,0.0
52872.0,STARLINK-4213,PAYLOAD,2022-09-21 22:00:00,15.19948694,0.0001582,53.2174,292.1346,48.13,217.0542,-0.0531429999999999,-0.01059615,0.0,0 STARLINK-4213,1 52872U 22062AU  22264.91667824 -.01059615  00000-0 -53143-1 0  9991,2 52872  53.2174 292.1346 0001582  48.1300 217.0542 15.19948694  1308,6884.1330000000025,94.74,507.087,504.908,0.0
52872.0,STARLINK-4213,PAYLOAD,2022-09-22 14:00:01,15.18433902,0.0001749,53.2164,289.0903,40.6057,272.6309,-0.055876,-0.01078966,0.0,0 STARLINK-4213,1 52872U 22062AU  22265.58334491 -.01078966  00000-0 -55876-1 0  9991,2 52872  53.2164 289.0903 0001749  40.6057 272.6309 15.18433902  1300,6888.71,94.835,511.78,509.37,0.0
52872.0,STARLINK-4213,PAYLOAD,2022-09-22 22:00:00,15.17669377,0.0001464,53.2173,287.5657,47.0648,288.8353,-0.0567159999999999,-0.01071709,0.0,0 STARLINK-4213,1 52872U 22062AU  22265.91667824 -.01071709  00000-0 -56716-1 0  9999,2 52872  53.2173 287.5657 0001464  47.0648 288.8353 15.17669377  1304,6891.023,94.882,513.8969999999998,511.88,0.0
52872.0,STARLINK-4213,PAYLOAD,2022-09-23 14:00:01,15.16178106,0.0001807,53.216,284.5322,31.3527,347.1117,-0.061475,-0.01109835,0.0,0 STARLINK-4213,1 52872U 22062AU  22266.58334491 -.01109835  00000-0 -61475-1 0  9994,2 52872  53.2160 284.5322 0001807  31.3527 347.1117 15.16178106  1300,6895.541,94.976,518.6519999999998,516.16,0.0
52872.0,STARLINK-4213,PAYLOAD,2022-09-23 22:00:00,15.15390955,0.0001738,53.2172,283.0126,35.7558,2.6460000000000004,-0.060571,-0.01072088,0.0,0 STARLINK-4213,1 52872U 22062AU  22266.91667824 -.01072088  00000-0 -60571-1 0  9995,2 52872  53.2172 283.0126 0001738  35.7558   2.6460 15.15390955  1305,6897.929,95.025,520.993,518.595,0.0
52872.0,STARLINK-4213,PAYLOAD,2022-09-24 14:00:01,15.13923665,0.0001969,53.2159,279.9897,29.9812,45.557,-0.067368,-0.01138248,0.0,0 STARLINK-4213,1 52872U 22062AU  22267.58335648 -.01138248  00000-0 -67368-1 0  9997,2 52872  53.2159 279.9897 0001969  29.9812  45.5570 15.13923665  1309,6902.385,95.117,525.609,522.891,0.0
52872.0,STARLINK-4213,PAYLOAD,2022-09-24 22:00:00,15.1311328,0.000197,53.2172,278.4755,33.0894,59.5998,-0.064708,-0.01073606,0.0,0 STARLINK-4213,1 52872U 22062AU  22267.91667824 -.01073606  00000-0 -64708-1 0  9999,2 52872  53.2172 278.4755 0001970  33.0894  59.5998 15.13113280  1302,6904.849,95.168,528.075,525.354,0.0
52872.0,STARLINK-4213,PAYLOAD,2022-09-25 14:00:01,15.1159452,0.0002025,53.2171,275.4612,34.8061,89.5102,-0.067475,-0.01072872,0.0,0 STARLINK-4213,1 52872U 22062AU  22268.58334491 -.01072872  00000-0 -67475-1 0  9992,2 52872  53.2171 275.4612 0002025  34.8061  89.5102 15.11594520  1305,6909.474,95.264,532.738,529.94,0.0
52872.0,STARLINK-4213,PAYLOAD,2022-09-25 22:00:01,15.10835691,0.0001634,53.2172,273.9542,51.6322,87.1933,-0.0690799999999999,-0.01075141,0.0,0 STARLINK-4213,1 52872U 22062AU  22268.91668981 -.01075141  00000-0 -69080-1 0  9999,2 52872  53.2172 273.9542 0001634  51.6322  87.1933 15.10835691 16222,6911.7869999999975,95.311,534.781,532.523,0.0
52872.0,STARLINK-4213,PAYLOAD,2022-09-26 00:00:00,15.10645551,0.0001563,53.2173,273.5784,58.6716,173.5591,-0.06932,-0.01073316,0.0,0 STARLINK-4213,1 52872U 22062AU  22269.00001157 -.01073316  00000-0 -69320-1 0  9995,2 52872  53.2173 273.5784 0001563  58.6716 173.5591 15.10645551  1309,6912.3669999999975,95.323,535.312,533.1519999999998,0.0
52872.0,STARLINK-4213,PAYLOAD,2022-09-26 12:00:00,15.09379508,0.0001386999999999,53.2172,271.328,49.7777,22.0836,-0.0401339999999999,-0.00610123,0.0,0 STARLINK-4213,1 52872U 22062AU  22269.50001157 -.00610123  00000-0 -40134-1 0  9994,2 52872  53.2172 271.3280 0001387  49.7777  22.0836 15.09379508 16307,6916.232,95.403,539.056,537.138,0.0
52872.0,STARLINK-4213,PAYLOAD,2022-09-26 14:00:01,15.0921096,0.0001428,53.2171,270.9528,51.9258,112.9969,-0.0310769999999999,-0.00472826,0.0,0 STARLINK-4213,1 52872U 22062AU  22269.58334491 -.00472826  00000-0 -31077-1 0  9994,2 52872  53.2171 270.9528 0001428  51.9258 112.9969 15.09210960  1307,6916.746999999999,95.414,539.599,537.624,0.0
52872.0,STARLINK-4213,PAYLOAD,2022-09-26 22:00:00,15.0883775,0.0001945,53.2173,269.4539,37.2071,139.55200000000002,-0.00016935,-2.982e-05,0.0,0 STARLINK-4213,1 52872U 22062AU  22269.91667824 -.00002982  00000-0 -16935-3 0  9990,2 52872  53.2173 269.4539 0001945  37.2071 139.5520 15.08837750 16370,6917.887,95.438,541.0980000000002,538.4069999999998,0.0
52872.0,STARLINK-4213,PAYLOAD,2022-09-27 00:00:00,15.08878416,0.0001662,53.2127,269.089,45.1247,224.5197,0.001471,0.00023225,0.0,0 STARLINK-4213,1 52872U 22062AU  22270.00001157  .00023225  00000-0  14710-2 0  9992,2 52872  53.2127 269.0890 0001662  45.1247 224.5197 15.08878416  1300,6917.763000000001,95.435,540.778,538.4780000000002,0.0
52872.0,STARLINK-4213,PAYLOAD,2022-09-27 06:00:00,15.0888221,0.000184,53.2127,267.968,40.921,147.4435,-0.0032592,-0.00051846,0.0,0 STARLINK-4213,1 52872U 22062AU  22270.25001157 -.00051846  00000-0 -32592-2 0  9999,2 52872  53.2127 267.9680 0001840  40.9210 147.4435 15.08882210 16429,6917.751,95.435,540.889,538.344,0.0
52872.0,STARLINK-4213,PAYLOAD,2022-09-27 14:00:01,15.08873736,0.0001878,53.2126,266.4712,39.5921,160.3925,-0.0050449,-0.00079765,0.0,0 STARLINK-4213,1 52872U 22062AU  22270.58334491 -.00079765  00000-0 -50449-2 0  9996,2 52872  53.2126 266.4712 0001878  39.5921 160.3925 15.08873736  1304,6917.776999999999,95.435,540.941,538.3430000000002,0.0
52872.0,STARLINK-4213,PAYLOAD,2022-09-27 22:00:01,15.08793232,0.0001786999999999,53.2129,264.9731,47.9147,163.7617,0.0013423,0.00021112,0.0,0 STARLINK-4213,1 52872U 22062AU  22270.91668981  .00021112  00000-0  13423-2 0  9999,2 52872  53.2129 264.9731 0001787  47.9147 163.7617 15.08793232  1300,6918.023,95.441,541.125,538.6519999999998,0.0
52872.0,STARLINK-4213,PAYLOAD,2022-09-28 14:00:01,15.08830413,0.0001796,53.2128,261.9814,39.8102,194.9306,-0.0011,-0.00017748,0.0,0 STARLINK-4213,1 52872U 22062AU  22271.58334491 -.00017748  00000-0 -11000-2 0  9990,2 52872  53.2128 261.9814 0001796  39.8102 194.9306 15.08830413  1303,6917.91,95.438,541.0169999999998,538.5319999999998,0.0
52872.0,STARLINK-4213,PAYLOAD,2022-09-28 22:00:00,15.08805632,0.0001636999999999,53.213,260.4837,46.008,200.303,0.0025318,0.00040198,0.0,0 STARLINK-4213,1 52872U 22062AU  22271.91667824  .00040198  00000-0  25318-2 0  9996,2 52872  53.2130 260.4837 0001637  46.0080 200.3030 15.08805632  1305,6917.985,95.44,540.9830000000002,538.7180000000002,0.0
52872.0,STARLINK-4213,PAYLOAD,2022-09-29 06:00:00,15.08827621,0.0001828,53.213,258.98900000000003,42.4297,215.4547,-0.0001718,-3.02e-05,0.0,0 STARLINK-4213,1 52872U 22062AU  22272.25001157 -.00003020  00000-0 -17180-3 0  9999,2 52872  53.2130 258.9890 0001828  42.4297 215.4547 15.08827621 16722,6917.918000000002,95.438,541.048,538.519,0.0
52872.0,STARLINK-4213,PAYLOAD,2022-09-29 14:00:01,15.08851187,0.000179,53.2127,257.492,42.0882,227.3725,-0.0015774,-0.00025313,0.0,0 STARLINK-4213,1 52872U 22062AU  22272.58334491 -.00025313  00000-0 -15774-2 0  9990,2 52872  53.2127 257.4920 0001790  42.0882 227.3725 15.08851187  1302,6917.846,95.437,540.9490000000002,538.4730000000002,0.0
52872.0,STARLINK-4213,PAYLOAD,2022-09-29 22:00:00,15.08831103,0.0001663,53.2128,255.9943,48.9849,232.0759,0.0025289,0.0004017999999999,0.0,0 STARLINK-4213,1 52872U 22062AU  22272.91667824  .00040180  00000-0  25289-2 0  9995,2 52872  53.2128 255.9943 0001663  48.9849 232.0759 15.08831103  1304,6917.908,95.438,540.923,538.622,0.0
